NORAD_CAT_ID,OBJECT_NAME,OBJECT_TYPE,EPOCH,MEAN_MOTION,ECCENTRICITY,INCLINATION,RA_OF_ASC_NODE,ARG_OF_PERICENTER,MEAN_ANOMALY,BSTAR,MEAN_MOTION_DOT,MEAN_MOTION_DDOT,TLE_LINE0,TLE_LINE1,TLE_LINE2,SEMIMAJOR_AXIS,PERIOD,APOGEE,PERIGEE,DECAYED
53546.0,STARLINK-4477,PAYLOAD,2022-12-08 00:28:09,15.08829576,0.0001833,53.2177,345.2985,26.4315,333.677,-0.00010561,-1.968e-05,0.0,0 STARLINK-4477,1 53546U 22101V   22342.01955623 -.00001968  00000-0 -10561-3 0  9995,2 53546  53.2177 345.2985 0001833  26.4315 333.6770 15.08829576 17156,6917.9119999999975,95.438,541.045,538.509,0.0
53546.0,STARLINK-4477,PAYLOAD,2022-12-08 11:35:49,15.08848637,0.0002072,53.2165,343.2182,32.5893,327.5227,9.9113e-05,1.29e-05,0.0,0 STARLINK-4477,1 53546U 22101V   22342.48321712  .00001290  00000-0  99113-4 0  9999,2 53546  53.2165 343.2182 0002072  32.5893 327.5227 15.08848637 17221,6917.854,95.437,541.1519999999998,538.286,0.0
53546.0,STARLINK-4477,PAYLOAD,2022-12-09 11:26:39,15.08805761,0.0002424,53.2164,338.7596,25.604,334.5071,-0.00017253,-3.031e-05,0.0,0 STARLINK-4477,1 53546U 22101V   22343.47685014 -.00003031  00000-0 -17253-3 0  9998,2 53546  53.2164 338.7596 0002424  25.6040 334.5071 15.08805761 17378,6917.985,95.44,541.5269999999998,538.173,0.0
53546.0,STARLINK-4477,PAYLOAD,2022-12-10 06:31:18,15.08812976,0.0002138,53.2165,335.1875,41.914,318.2016,-0.00019437,-3.378e-05,0.0,0 STARLINK-4477,1 53546U 22101V   22344.27173727 -.00003378  00000-0 -19437-3 0  9990,2 53546  53.2165 335.1875 0002138  41.9140 318.2016 15.08812976 17491,6917.9630000000025,95.439,541.307,538.349,0.0
53546.0,STARLINK-4477,PAYLOAD,2022-12-10 11:17:26,15.08820728,0.0001315,53.217,334.2892,71.9481,288.1654,-0.00018325,-3.202e-05,0.0,0 STARLINK-4477,1 53546U 22101V   22344.47045110 -.00003202  00000-0 -18325-3 0  9997,2 53546  53.2170 334.2892 0001315  71.9481 288.1654 15.08820728 17524,6917.939,95.439,540.714,538.895,0.0
53546.0,STARLINK-4477,PAYLOAD,2022-12-11 03:11:18,15.088278400000002,0.0002536,53.2185,331.3237,23.8744,336.2365,-3.4581999999999995e-05,-8.39e-06,0.0,0 STARLINK-4477,1 53546U 22101V   22345.13285027 -.00000839  00000-0 -34582-4 0  9991,2 53546  53.2185 331.3237 0002536  23.8744 336.2365 15.08827840 17622,6917.918000000002,95.438,541.5369999999998,538.028,0.0
53546.0,STARLINK-4477,PAYLOAD,2022-12-11 06:22:04,15.08831959,0.000201,53.217,330.7254,42.3421,317.7726,2.4241e-05,9.8e-07,0.0,0 STARLINK-4477,1 53546U 22101V   22345.26532438  .00000098  00000-0  24241-4 0  9992,2 53546  53.2170 330.7254 0002010  42.3421 317.7726 15.08831959 17646,6917.905,95.438,541.16,538.379,0.0
53546.0,STARLINK-4477,PAYLOAD,2022-12-12 07:48:16,15.08811633,0.0002154,53.2172,325.9675,42.1159,317.9998,-3.6131e-05,-8.63e-06,0.0,0 STARLINK-4477,1 53546U 22101V   22346.32518669 -.00000863  00000-0 -36131-4 0  9993,2 53546  53.2172 325.9675 0002154  42.1159 317.9998 15.08811633 17804,6917.967,95.439,541.322,538.342,0.0
53546.0,STARLINK-4477,PAYLOAD,2022-12-13 09:14:25,15.08842572,0.0002041,53.2169,321.2078,47.951,312.1655,1.9946e-05,2.9e-07,0.0,0 STARLINK-4477,1 53546U 22101V   22347.38501168  .00000029  00000-0  19946-4 0  9993,2 53546  53.2169 321.2078 0002041  47.9510 312.1655 15.08842572 17965,6917.873000000001,95.437,541.149,538.326,0.0
53546.0,STARLINK-4477,PAYLOAD,2022-12-13 15:35:56,15.08855472,0.0002003,53.2164,320.0202,47.1328,312.9832,7.5094e-05,9.08e-06,0.0,0 STARLINK-4477,1 53546U 22101V   22347.64995970  .00000908  00000-0  75094-4 0  9992,2 53546  53.2164 320.0202 0002003  47.1328 312.9832 15.08855472 18007,6917.833000000001,95.437,541.0840000000002,538.312,0.0
53546.0,STARLINK-4477,PAYLOAD,2022-12-14 07:29:47,15.08847844,0.0002007,53.2155,317.047,47.9444,312.1718,4.9061e-05,4.93e-06,0.0,0 STARLINK-4477,1 53546U 22101V   22348.31236084  .00000493  00000-0  49061-4 0  9995,2 53546  53.2155 317.0470 0002007  47.9444 312.1718 15.08847844 18101,6917.856,95.437,541.11,538.3330000000002,0.0
53546.0,STARLINK-4477,PAYLOAD,2022-12-14 15:26:44,15.08834816,0.0002147,53.2162,315.56,49.7931,310.3248,9.2451e-05,1.183e-05,0.0,0 STARLINK-4477,1 53546U 22101V   22348.64356773  .00001183  00000-0  92451-4 0  9997,2 53546  53.2162 315.5600 0002147  49.7931 310.3248 15.08834816 18151,6917.896,95.438,541.247,538.276,0.0
53546.0,STARLINK-4477,PAYLOAD,2022-12-15 07:20:35,15.08847531,0.0001937,53.2156,312.5848,55.4164,304.701,-2.2517e-05,-6.47e-06,0.0,0 STARLINK-4477,1 53546U 22101V   22349.30596322 -.00000647  00000-0 -22517-4 0  9999,2 53546  53.2156 312.5848 0001937  55.4164 304.7010 15.08847531 18256,6917.857,95.437,541.062,538.382,0.0
53546.0,STARLINK-4477,PAYLOAD,2022-12-15 15:17:30,15.08850584,0.0002004,53.2157,311.0984,54.5781,305.5399,-6.8639e-06,-3.98e-06,0.0,0 STARLINK-4477,1 53546U 22101V   22349.63715851 -.00000398  00000-0 -68639-5 0  9994,2 53546  53.2157 311.0984 0002004  54.5781 305.5399 15.08850584 18300,6917.848000000001,95.437,541.099,538.327,0.0
53546.0,STARLINK-4477,PAYLOAD,2022-12-16 04:00:37,15.08821248,0.0001981,53.2158,308.7212,46.7367,313.379,-0.00026922,-4.568e-05,0.0,0 STARLINK-4477,1 53546U 22101V   22350.16710102 -.00004568  00000-0 -26922-3 0  9998,2 53546  53.2158 308.7212 0001981  46.7367 313.3790 15.08821248 18389,6917.938,95.439,541.173,538.432,0.0
53546.0,STARLINK-4477,PAYLOAD,2022-12-16 07:11:23,15.08824152,0.0001978,53.2158,308.1263,46.9995,313.1162,-0.00023534,-4.03e-05,0.0,0 STARLINK-4477,1 53546U 22101V   22350.29957905 -.00004030  00000-0 -23534-3 0  9996,2 53546  53.2158 308.1263 0001978  46.9995 313.1162 15.08824152 18405,6917.929,95.439,541.1619999999998,538.425,0.0
53546.0,STARLINK-4477,PAYLOAD,2022-12-16 21:29:51,15.08822126,0.0001862,53.217,305.4486,52.8701,307.2461,-0.00010826,-2.01e-05,0.0,0 STARLINK-4477,1 53546U 22101V   22350.89573978 -.00002010  00000-0 -10826-3 0  9992,2 53546  53.2170 305.4486 0001862  52.8701 307.2461 15.08822126 18493,6917.935,95.439,541.0880000000002,538.512,0.0
53546.0,STARLINK-4477,PAYLOAD,2022-12-17 03:51:23,15.08832376,0.0001972,53.2165,304.2604,50.0887,310.0278,-9.3992e-06,-4.38e-06,0.0,0 STARLINK-4477,1 53546U 22101V   22351.16069182 -.00000438  00000-0 -93992-5 0  9999,2 53546  53.2165 304.2604 0001972  50.0887 310.0278 15.08832376 18534,6917.904,95.438,541.133,538.404,0.0
53546.0,STARLINK-4477,PAYLOAD,2022-12-17 07:02:09,15.08840996,0.0001953,53.2165,303.6649,51.5146,308.6021,-5.193300000000002e-06,-3.71e-06,0.0,0 STARLINK-4477,1 53546U 22101V   22351.29316632 -.00000371  00000-0 -51933-5 0  9993,2 53546  53.2165 303.6649 0001953  51.5146 308.6021 15.08840996 18557,6917.877,95.437,541.0930000000002,538.391,0.0
53546.0,STARLINK-4477,PAYLOAD,2022-12-18 03:42:10,15.08835412,0.0001864,53.2172,299.798,49.0636,311.0518,-4.595e-05,-1.019e-05,0.0,0 STARLINK-4477,1 53546U 22101V   22352.15429155 -.00001019  00000-0 -45950-4 0  9995,2 53546  53.2172 299.7980 0001864  49.0636 311.0518 15.08835412 18685,6917.894,95.438,541.049,538.47,0.0
53546.0,STARLINK-4477,PAYLOAD,2022-12-18 05:17:34,15.08832706,0.0001899,53.2167,299.5011,46.3124,313.8025,-5.2015e-05,-1.116e-05,0.0,0 STARLINK-4477,1 53546U 22101V   22352.22053385 -.00001116  00000-0 -52015-4 0  9999,2 53546  53.2167 299.5011 0001899  46.3124 313.8025 15.08832706 18699,6917.903,95.438,541.081,538.4540000000002,0.0
53546.0,STARLINK-4477,PAYLOAD,2022-12-18 13:14:30,15.08811668,0.0001942,53.2165,298.0149,50.2767,309.8396,0.00013808,1.908e-05,0.0,0 STARLINK-4477,1 53546U 22101V   22352.55174344  .00001908  00000-0  13808-3 0  9997,2 53546  53.2165 298.0149 0001942  50.2767 309.8396 15.08811668 18745,6917.967,95.439,541.175,538.489,0.0
53546.0,STARLINK-4477,PAYLOAD,2022-12-19 00:22:12,15.08831917,0.0001887,53.2169,295.9328,52.8809,307.2356,-2.9357e-05,-7.55e-06,0.0,0 STARLINK-4477,1 53546U 22101V   22353.01542110 -.00000755  00000-0 -29357-4 0  9997,2 53546  53.2169 295.9328 0001887  52.8809 307.2356 15.08831917 18812,6917.905,95.438,541.076,538.465,0.0
53546.0,STARLINK-4477,PAYLOAD,2022-12-19 06:43:44,15.08843137,0.0002,53.2174,294.7442,54.8797,305.2383,5.1483e-05,5.31e-06,0.0,0 STARLINK-4477,1 53546U 22101V   22353.28037295  .00000531  00000-0  51483-4 0  9994,2 53546  53.2174 294.7442 0002000  54.8797 305.2383 15.08843137 18857,6917.871,95.437,541.119,538.352,0.0
53546.0,STARLINK-4477,PAYLOAD,2022-12-20 00:12:59,15.08828257,0.0001812,53.2182,291.4724,62.8002,297.3175,6.0419e-05,6.73e-06,0.0,0 STARLINK-4477,1 53546U 22101V   22354.00902014  .00000673  00000-0  60419-4 0  9991,2 53546  53.2182 291.4724 0001812  62.8002 297.3175 15.08828257 18969,6917.916,95.438,541.035,538.528,0.0
53546.0,STARLINK-4477,PAYLOAD,2022-12-20 06:34:30,15.08842214,0.0001942,53.2188,290.2825,63.6282,296.4909,0.00016541,2.345e-05,0.0,0 STARLINK-4477,1 53546U 22101V   22354.27396882  .00002345  00000-0  16541-3 0  9994,2 53546  53.2188 290.2825 0001942  63.6282 296.4909 15.08842214 19007,6917.874,95.437,541.082,538.395,0.0
53546.0,STARLINK-4477,PAYLOAD,2022-12-20 12:56:04,15.0882777,0.0001854,53.2161,289.0922,59.4239,300.6936,-2.4041e-05,-6.71e-06,0.0,0 STARLINK-4477,1 53546U 22101V   22354.53894387 -.00000671  00000-0 -24041-4 0  9993,2 53546  53.2161 289.0922 0001854  59.4239 300.6936 15.08827770 19041,6917.918000000002,95.438,541.065,538.5,0.0
53546.0,STARLINK-4477,PAYLOAD,2022-12-20 20:53:00,15.08822602,0.0001833,53.2178,287.6058,63.1292,296.9887,-2.193e-05,-6.37e-06,0.0,0 STARLINK-4477,1 53546U 22101V   22354.87015010 -.00000637  00000-0 -21930-4 0  9994,2 53546  53.2178 287.6058 0001833  63.1292 296.9887 15.08822602 19097,6917.934,95.439,541.067,538.531,0.0
53546.0,STARLINK-4477,PAYLOAD,2022-12-21 04:49:56,15.08834872,0.0001774999999999,53.2189,286.1202,65.5115,294.6062,-6.246399999999999e-05,-1.282e-05,0.0,0 STARLINK-4477,1 53546U 22101V   22355.20134696 -.00001282  00000-0 -62464-4 0  9998,2 53546  53.2189 286.1202 0001775  65.5115 294.6062 15.08834872 19147,6917.896,95.438,540.989,538.533,0.0
